ORBCOMM FM24            
1 25478U 98053D   25092.51074019  .00002620  00000+0  90744-3 0  9992
2 25478  45.0071 267.8530 0002695 193.7390 166.3385 14.37840556386552
ORBCOMM FM25            
1 25479U 98053E   25092.48075818  .00002597  00000+0  90047-3 0  9996
2 25479  45.0063 266.2564 0004804 214.3195 145.7343 14.37814737386840
ORBCOMM FM26            
1 25480U 98053F   25092.51305535  .00002241  00000+0  79739-3 0  9995
2 25480  45.0057 262.0261 0006404 235.6294 124.3948 14.36916741386769
ORBCOMM FM27            
1 25481U 98053G   25092.46981100  .00002679  00000+0  92713-3 0  9990
2 25481  45.0046 266.5369 0001258 181.2943 178.7902 14.37832939386776
ORBCOMM FM28            
1 25482U 98053H   25092.58760319  .00002225  00000+0  77415-3 0  9990
2 25482  45.0045 203.5957 0005520 261.5415  98.4808 14.38061094387470
ORBCOMM FM30            
1 25980U 99065A   25092.37253106  .00001986  00000+0  70988-3 0  9996
2 25980  45.0309  88.5193 0007785 334.6528  25.3937 14.37069756323543
ORBCOMM FM31            
1 25981U 99065B   25092.34292333  .00002016  00000+0  72092-3 0  9992
2 25981  45.0216  82.1702 0004627 346.4083  13.6639 14.37025967323091
ORBCOMM FM32            
1 25982U 99065C   25092.40820723  .00001826  00000+0  67021-3 0  9994
2 25982  45.0148  97.9267 0006576 350.2621   9.8099 14.36058199323709
