<?xml version="1.0" encoding="UTF-8"?>
<ndm xmlns:xsi="http://www.w3.org/2001/XMLSchema-instance" xsi:noNamespaceSchemaLocation="https://sanaregistry.org/r/ndmxml_unqualified/ndmxml-2.0.0-master-2.0.xsd">
<omm id="CCSDS_OMM_VERS" version="2.0">
<header><CREATION_DATE/><ORIGINATOR/></header><body><segment><metadata><OBJECT_NAME>ORBCOMM FM24</OBJECT_NAME><OBJECT_ID>1998-053D</OBJECT_ID><CENTER_NAME>EARTH</CENTER_NAME><REF_FRAME>TEME</REF_FRAME><TIME_SYSTEM>UTC</TIME_SYSTEM><MEAN_ELEMENT_THEORY>SGP4</MEAN_ELEMENT_THEORY></metadata><data><meanElements><EPOCH>2025-04-02T12:15:27.952416</EPOCH><MEAN_MOTION>14.37840556</MEAN_MOTION><ECCENTRICITY>.0002695</ECCENTRICITY><INCLINATION>45.0071</INCLINATION><RA_OF_ASC_NODE>267.8530</RA_OF_ASC_NODE><ARG_OF_PERICENTER>193.7390</ARG_OF_PERICENTER><MEAN_ANOMALY>166.3385</MEAN_ANOMALY></meanElements><tleParameters><EPHEMERIS_TYPE>0</EPHEMERIS_TYPE><CLASSIFICATION_TYPE>U</CLASSIFICATION_TYPE><NORAD_CAT_ID>25478</NORAD_CAT_ID><ELEMENT_SET_NO>999</ELEMENT_SET_NO><REV_AT_EPOCH>38655</REV_AT_EPOCH><BSTAR>.90744E-3</BSTAR><MEAN_MOTION_DOT>.262E-4</MEAN_MOTION_DOT><MEAN_MOTION_DDOT>0</MEAN_MOTION_DDOT></tleParameters></data></segment></body></omm>
<omm id="CCSDS_OMM_VERS" version="2.0">
<header><CREATION_DATE/><ORIGINATOR/></header><body><segment><metadata><OBJECT_NAME>ORBCOMM FM25</OBJECT_NAME><OBJECT_ID>1998-053E</OBJECT_ID><CENTER_NAME>EARTH</CENTER_NAME><REF_FRAME>TEME</REF_FRAME><TIME_SYSTEM>UTC</TIME_SYSTEM><MEAN_ELEMENT_THEORY>SGP4</MEAN_ELEMENT_THEORY></metadata><data><meanElements><EPOCH>2025-04-02T11:32:17.506752</EPOCH><MEAN_MOTION>14.37814737</MEAN_MOTION><ECCENTRICITY>.0004804</ECCENTRICITY><INCLINATION>45.0063</INCLINATION><RA_OF_ASC_NODE>266.2564</RA_OF_ASC_NODE><ARG_OF_PERICENTER>214.3195</ARG_OF_PERICENTER><MEAN_ANOMALY>145.7343</MEAN_ANOMALY></meanElements><tleParameters><EPHEMERIS_TYPE>0</EPHEMERIS_TYPE><CLASSIFICATION_TYPE>U</CLASSIFICATION_TYPE><NORAD_CAT_ID>25479</NORAD_CAT_ID><ELEMENT_SET_NO>999</ELEMENT_SET_NO><REV_AT_EPOCH>38684</REV_AT_EPOCH><BSTAR>.90047E-3</BSTAR><MEAN_MOTION_DOT>.2597E-4</MEAN_MOTION_DOT><MEAN_MOTION_DDOT>0</MEAN_MOTION_DDOT></tleParameters></data></segment></body></omm>
<omm id="CCSDS_OMM_VERS" version="2.0">
<header><CREATION_DATE/><ORIGINATOR/></header><body><segment><metadata><OBJECT_NAME>ORBCOMM FM26</OBJECT_NAME><OBJECT_ID>1998-053F</OBJECT_ID><CENTER_NAME>EARTH</CENTER_NAME><REF_FRAME>TEME</REF_FRAME><TIME_SYSTEM>UTC</TIME_SYSTEM><MEAN_ELEMENT_THEORY>SGP4</MEAN_ELEMENT_THEORY></metadata><data><meanElements><EPOCH>2025-04-02T12:18:47.982240</EPOCH><MEAN_MOTION>14.36916741</MEAN_MOTION><ECCENTRICITY>.0006404</ECCENTRICITY><INCLINATION>45.0057</INCLINATION><RA_OF_ASC_NODE>262.0261</RA_OF_ASC_NODE><ARG_OF_PERICENTER>235.6294</ARG_OF_PERICENTER><MEAN_ANOMALY>124.3948</MEAN_ANOMALY></meanElements><tleParameters><EPHEMERIS_TYPE>0</EPHEMERIS_TYPE><CLASSIFICATION_TYPE>U</CLASSIFICATION_TYPE><NORAD_CAT_ID>25480</NORAD_CAT_ID><ELEMENT_SET_NO>999</ELEMENT_SET_NO><REV_AT_EPOCH>38676</REV_AT_EPOCH><BSTAR>.79739E-3</BSTAR><MEAN_MOTION_DOT>.2241E-4</MEAN_MOTION_DOT><MEAN_MOTION_DDOT>0</MEAN_MOTION_DDOT></tleParameters></data></segment></body></omm>
<omm id="CCSDS_OMM_VERS" version="2.0">
<header><CREATION_DATE/><ORIGINATOR/></header><body><segment><metadata><OBJECT_NAME>ORBCOMM FM27</OBJECT_NAME><OBJECT_ID>1998-053G</OBJECT_ID><CENTER_NAME>EARTH</CENTER_NAME><REF_FRAME>TEME</REF_FRAME><TIME_SYSTEM>UTC</TIME_SYSTEM><MEAN_ELEMENT_THEORY>SGP4</MEAN_ELEMENT_THEORY></metadata><data><meanElements><EPOCH>2025-04-02T11:16:31.670400</EPOCH><MEAN_MOTION>14.37832939</MEAN_MOTION><ECCENTRICITY>.0001258</ECCENTRICITY><INCLINATION>45.0046</INCLINATION><RA_OF_ASC_NODE>266.5369</RA_OF_ASC_NODE><ARG_OF_PERICENTER>181.2943</ARG_OF_PERICENTER><MEAN_ANOMALY>178.7902</MEAN_ANOMALY></meanElements><tleParameters><EPHEMERIS_TYPE>0</EPHEMERIS_TYPE><CLASSIFICATION_TYPE>U</CLASSIFICATION_TYPE><NORAD_CAT_ID>25481</NORAD_CAT_ID><ELEMENT_SET_NO>999</ELEMENT_SET_NO><REV_AT_EPOCH>38677</REV_AT_EPOCH><BSTAR>.92713E-3</BSTAR><MEAN_MOTION_DOT>.2679E-4</MEAN_MOTION_DOT><MEAN_MOTION_DDOT>0</MEAN_MOTION_DDOT></tleParameters></data></segment></body></omm>
<omm id="CCSDS_OMM_VERS" version="2.0">
<header><CREATION_DATE/><ORIGINATOR/></header><body><segment><metadata><OBJECT_NAME>ORBCOMM FM28</OBJECT_NAME><OBJECT_ID>1998-053H</OBJECT_ID><CENTER_NAME>EARTH</CENTER_NAME><REF_FRAME>TEME</REF_FRAME><TIME_SYSTEM>UTC</TIME_SYSTEM><MEAN_ELEMENT_THEORY>SGP4</MEAN_ELEMENT_THEORY></metadata><data><meanElements><EPOCH>2025-04-02T14:06:08.915616</EPOCH><MEAN_MOTION>14.38061094</MEAN_MOTION><ECCENTRICITY>.000552</ECCENTRICITY><INCLINATION>45.0045</INCLINATION><RA_OF_ASC_NODE>203.5957</RA_OF_ASC_NODE><ARG_OF_PERICENTER>261.5415</ARG_OF_PERICENTER><MEAN_ANOMALY>98.4808</MEAN_ANOMALY></meanElements><tleParameters><EPHEMERIS_TYPE>0</EPHEMERIS_TYPE><CLASSIFICATION_TYPE>U</CLASSIFICATION_TYPE><NORAD_CAT_ID>25482</NORAD_CAT_ID><ELEMENT_SET_NO>999</ELEMENT_SET_NO><REV_AT_EPOCH>38747</REV_AT_EPOCH><BSTAR>.77415E-3</BSTAR><MEAN_MOTION_DOT>.2225E-4</MEAN_MOTION_DOT><MEAN_MOTION_DDOT>0</MEAN_MOTION_DDOT></tleParameters></data></segment></body></omm>
<omm id="CCSDS_OMM_VERS" version="2.0">
<header><CREATION_DATE/><ORIGINATOR/></header><body><segment><metadata><OBJECT_NAME>ORBCOMM FM30</OBJECT_NAME><OBJECT_ID>1999-065A</OBJECT_ID><CENTER_NAME>EARTH</CENTER_NAME><REF_FRAME>TEME</REF_FRAME><TIME_SYSTEM>UTC</TIME_SYSTEM><MEAN_ELEMENT_THEORY>SGP4</MEAN_ELEMENT_THEORY></metadata><data><meanElements><EPOCH>2025-04-02T08:56:26.683584</EPOCH><MEAN_MOTION>14.37069756</MEAN_MOTION><ECCENTRICITY>.0007785</ECCENTRICITY><INCLINATION>45.0309</INCLINATION><RA_OF_ASC_NODE>88.5193</RA_OF_ASC_NODE><ARG_OF_PERICENTER>334.6528</ARG_OF_PERICENTER><MEAN_ANOMALY>25.3937</MEAN_ANOMALY></meanElements><tleParameters><EPHEMERIS_TYPE>0</EPHEMERIS_TYPE><CLASSIFICATION_TYPE>U</CLASSIFICATION_TYPE><NORAD_CAT_ID>25980</NORAD_CAT_ID><ELEMENT_SET_NO>999</ELEMENT_SET_NO><REV_AT_EPOCH>32354</REV_AT_EPOCH><BSTAR>.70988E-3</BSTAR><MEAN_MOTION_DOT>.1986E-4</MEAN_MOTION_DOT><MEAN_MOTION_DDOT>0</MEAN_MOTION_DDOT></tleParameters></data></segment></body></omm>
<omm id="CCSDS_OMM_VERS" version="2.0">
<header><CREATION_DATE/><ORIGINATOR/></header><body><segment><metadata><OBJECT_NAME>ORBCOMM FM31</OBJECT_NAME><OBJECT_ID>1999-065B</OBJECT_ID><CENTER_NAME>EARTH</CENTER_NAME><REF_FRAME>TEME</REF_FRAME><TIME_SYSTEM>UTC</TIME_SYSTEM><MEAN_ELEMENT_THEORY>SGP4</MEAN_ELEMENT_THEORY></metadata><data><meanElements><EPOCH>2025-04-02T08:13:48.575712</EPOCH><MEAN_MOTION>14.37025967</MEAN_MOTION><ECCENTRICITY>.0004627</ECCENTRICITY><INCLINATION>45.0216</INCLINATION><RA_OF_ASC_NODE>82.1702</RA_OF_ASC_NODE><ARG_OF_PERICENTER>346.4083</ARG_OF_PERICENTER><MEAN_ANOMALY>13.6639</MEAN_ANOMALY></meanElements><tleParameters><EPHEMERIS_TYPE>0</EPHEMERIS_TYPE><CLASSIFICATION_TYPE>U</CLASSIFICATION_TYPE><NORAD_CAT_ID>25981</NORAD_CAT_ID><ELEMENT_SET_NO>999</ELEMENT_SET_NO><REV_AT_EPOCH>32309</REV_AT_EPOCH><BSTAR>.72092E-3</BSTAR><MEAN_MOTION_DOT>.2016E-4</MEAN_MOTION_DOT><MEAN_MOTION_DDOT>0</MEAN_MOTION_DDOT></tleParameters></data></segment></body></omm>
<omm id="CCSDS_OMM_VERS" version="2.0">
<header><CREATION_DATE/><ORIGINATOR/></header><body><segment><metadata><OBJECT_NAME>ORBCOMM FM32</OBJECT_NAME><OBJECT_ID>1999-065C</OBJECT_ID><CENTER_NAME>EARTH</CENTER_NAME><REF_FRAME>TEME</REF_FRAME><TIME_SYSTEM>UTC</TIME_SYSTEM><MEAN_ELEMENT_THEORY>SGP4</MEAN_ELEMENT_THEORY></metadata><data><meanElements><EPOCH>2025-04-02T09:47:49.104672</EPOCH><MEAN_MOTION>14.36058199</MEAN_MOTION><ECCENTRICITY>.0006576</ECCENTRICITY><INCLINATION>45.0148</INCLINATION><RA_OF_ASC_NODE>97.9267</RA_OF_ASC_NODE><ARG_OF_PERICENTER>350.2621</ARG_OF_PERICENTER><MEAN_ANOMALY>9.8099</MEAN_ANOMALY></meanElements><tleParameters><EPHEMERIS_TYPE>0</EPHEMERIS_TYPE><CLASSIFICATION_TYPE>U</CLASSIFICATION_TYPE><NORAD_CAT_ID>25982</NORAD_CAT_ID><ELEMENT_SET_NO>999</ELEMENT_SET_NO><REV_AT_EPOCH>32370</REV_AT_EPOCH><BSTAR>.67021E-3</BSTAR><MEAN_MOTION_DOT>.1826E-4</MEAN_MOTION_DOT><MEAN_MOTION_DDOT>0</MEAN_MOTION_DDOT></tleParameters></data></segment></body></omm>

</ndm>
